     2.100          NAVIGATION                              RINEX VERSION / TYPE
fic2rin                                 11/21/2011 00:06:52 PGM / RUN BY / DATE
                                                            END OF HEADER
 8 11 11 20 12  0  0.0  .908039510250D-07  .000000000000D+00  .000000000000D+00
     .350000000000D+02 -.205000000000D+02  .348657380122D-08 -.136447251978D+01
    -.134110450745D-05  .121529053431D-01  .111982226372D-04  .515373873329D+04
     .432000000000D+05  .782310962677D-07 -.893169171715D+00 -.160187482834D-06
     .997316963512D+00  .179500000000D+03 -.299984612921D+01 -.755960060199D-08
     .377872882779D-09  .100000000000D+01  .166300000000D+04  .000000000000D+00
     .340000000000D+01  .000000000000D+00 -.419095158577D-08  .350000000000D+02
     .360060000000D+05  .400000000000D+01
 9 11 11 20 12  0  0.0  .119578558952D-03  .250111042988D-11  .000000000000D+00
     .840000000000D+02 -.209687500000D+02  .381730186309D-08 -.149748038933D+01
    -.743195414543D-06  .171497167321D-01  .103022903204D-04  .515365675545D+04
     .432000000000D+05 -.335276126862D-07 -.999569905630D+00  .409781932831D-06
     .984158104627D+00  .196062500000D+03  .160175404035D+01 -.778675292094D-08
     .950039572962D-10  .100000000000D+01  .166300000000D+04  .000000000000D+00
     .340000000000D+01  .000000000000D+00 -.558793544769D-08  .840000000000D+02
     .360060000000D+05  .400000000000D+01
10 11 11 20 12  0  0.0 -.196271575987D-04 -.113686837722D-11  .000000000000D+00
     .770000000000D+02  .812812500000D+02  .488520348833D-08  .299264325455D+01
     .410899519920D-05  .108000902692D-01  .603310763836D-05  .515364800072D+04
     .432000000000D+05 -.577419996262D-07 -.305832593711D+01 -.108033418655D-06
     .947874156500D+00  .255812500000D+03  .716597581097D+00 -.827998775187D-08
     .205365697163D-09  .100000000000D+01  .166300000000D+04  .000000000000D+00
     .340000000000D+01  .000000000000D+00 -.279396772385D-08  .770000000000D+02
     .360060000000D+05  .400000000000D+01
12 11 11 20 12  0  0.0  .358377583325D-04  .227373675443D-11  .000000000000D+00
     .430000000000D+02  .162812500000D+02  .451054502516D-08 -.991644631785D+00
     .860542058945D-06  .360115850344D-02  .661611557007D-05  .515361921883D+04
     .432000000000D+05  .391155481339D-07  .827218058324D-01  .931322574615D-08
     .977685761519D+00  .262437500000D+03 -.713066165611D-01 -.815641117584D-08
     .450375902821D-09  .100000000000D+01  .166300000000D+04  .000000000000D+00
     .240000000000D+01  .000000000000D+00 -.121071934700D-07  .430000000000D+02
     .360060000000D+05  .400000000000D+01
13 11 11 20 12  0  0.0  .240486115217D-03 -.193267624127D-11  .000000000000D+00
     .260000000000D+02 -.518125000000D+02  .397123684653D-08  .160491693507D+01
    -.270642340183D-05  .458730710670D-02  .649504363537D-05  .515375246811D+04
     .432000000000D+05  .158324837685D-06 -.194536502586D+01 -.428408384323D-07
     .987689509873D+00  .266875000000D+03  .195235897095D+01 -.799068998717D-08
    -.296083761649D-09  .100000000000D+01  .166300000000D+04  .000000000000D+00
     .240000000000D+01  .000000000000D+00 -.116415321827D-07  .260000000000D+02
     .360060000000D+05  .400000000000D+01
14 11 11 20 12  0  0.0  .182143878192D-03  .181898940355D-11  .000000000000D+00
     .820000000000D+02 -.420312500000D+02  .413088635371D-08  .164030537253D+01
    -.220350921154D-05  .630865409039D-02  .641308724880D-05  .515373945999D+04
     .432000000000D+05 -.158324837685D-06 -.197077717540D+01 -.614672899246D-07
     .980636225904D+00  .264218750000D+03 -.206391399389D+01 -.808140805165D-08
    -.258225041824D-09  .100000000000D+01  .166300000000D+04  .000000000000D+00
     .240000000000D+01  .000000000000D+00 -.884756445885D-08  .820000000000D+02
     .360060000000D+05  .400000000000D+01
15 11 11 20 12  0  0.0 -.988319516182D-04  .102318153949D-11  .000000000000D+00
     .460000000000D+02 -.396250000000D+02  .491591905347D-08  .134486643024D+01
    -.200420618057D-05  .396474928129D-02  .479817390442D-05  .515372148705D+04
     .432000000000D+05 -.111758708954D-07 -.205241907120D+01  .298023223877D-07
     .947678043554D+00  .279125000000D+03 -.586088811580D-01 -.849178228825D-08
    -.268225458381D-09  .100000000000D+01  .166300000000D+04  .000000000000D+00
     .240000000000D+01  .000000000000D+00 -.102445483208D-07  .460000000000D+02
     .360060000000D+05  .400000000000D+01
16 11 11 20 12  0  0.0 -.209848862141D-03 -.193267624127D-11  .000000000000D+00
     .102000000000D+03  .133750000000D+02  .451804533758D-08  .293682657345D+01
     .810250639915D-06  .616926664952D-02  .631809234619D-05  .515355464935D+04
     .432000000000D+05 -.111758708954D-06  .100717452246D+00 -.931322574615D-08
     .978601861301D+00  .267687500000D+03 -.756689753680D-01 -.803390607301D-08
     .402873924173D-09  .100000000000D+01  .166300000000D+04  .000000000000D+00
     .240000000000D+01  .000000000000D+00 -.977888703346D-08  .102000000000D+03
     .360060000000D+05  .400000000000D+01
17 11 11 20 12  0  0.0  .164755154401D-03 -.193267624127D-11  .000000000000D+00
     .420000000000D+02 -.631250000000D+02  .479769984346D-08  .203897781792D+01
    -.331364572048D-05  .677525077481D-02  .732205808163D-05  .515359997368D+04
     .432000000000D+05 -.132247805595D-06  .114222480997D+01 -.949949026108D-07
     .961627554070D+00  .241593750000D+03 -.239774373503D+01 -.824641492485D-08
    -.344300055765D-09  .100000000000D+01  .166300000000D+04  .000000000000D+00
     .240000000000D+01  .000000000000D+00 -.107102096081D-07  .420000000000D+02
     .360060000000D+05  .400000000000D+01
18 11 11 20 12  0  0.0  .168000347912D-03  .181898940355D-11  .000000000000D+00
     .200000000000D+02  .790625000000D+02  .517950146131D-08 -.280814337209D+01
     .409409403801D-05  .127301393077D-01  .512227416039D-05  .515365022278D+04
     .432000000000D+05  .113621354103D-06 -.306660896610D+01 -.130385160446D-06
     .931727745332D+00  .263843750000D+03 -.220347534876D+01 -.837606318237D-08
     .205365697163D-09  .100000000000D+01  .166300000000D+04  .000000000000D+00
     .240000000000D+01  .000000000000D+00 -.111758708954D-07  .200000000000D+02
     .360060000000D+05  .400000000000D+01
19 11 11 20 12  0  0.0 -.206834636629D-03 -.397903932026D-11  .000000000000D+00
     .960000000000D+02 -.555000000000D+02  .490663295239D-08  .125086834067D+01
    -.264868140221D-05  .769814080559D-02  .797025859356D-05  .515371811485D+04
     .432000000000D+05  .875443220139D-07  .119578829441D+01  .108033418655D-06
     .959050160129D+00  .221906250000D+03  .132061188924D+00 -.830427447779D-08
    -.498592196938D-09  .100000000000D+01  .166300000000D+04  .000000000000D+00
     .240000000000D+01  .000000000000D+00 -.144354999065D-07  .960000000000D+02
     .360060000000D+05  .400000000000D+01
21 11 11 20 12  0  0.0 -.185706187040D-03 -.250111042988D-11  .000000000000D+00
     .102000000000D+03  .368437500000D+02  .496592113626D-08 -.172735993209D+01
     .169314444065D-05  .182271196973D-01  .108405947685D-04  .515368997955D+04
     .432000000000D+05  .284984707832D-06  .216434053317D+01 -.203028321266D-06
     .931424657964D+00  .152187500000D+03 -.231701592312D+01 -.798176104381D-08
    -.367872466222D-10  .100000000000D+01  .166300000000D+04  .000000000000D+00
     .240000000000D+01  .000000000000D+00 -.111758708954D-07  .102000000000D+03
     .360060000000D+05  .400000000000D+01
22 11 11 20 12  0  0.0  .143379904330D-03 -.341060513165D-12  .000000000000D+00
     .360000000000D+02  .729687500000D+02  .534057959943D-08  .261086283310D+01
     .373460352421D-05  .580159027595D-02  .498443841934D-05  .515369972801D+04
     .432000000000D+05  .108033418655D-06 -.306283750039D+01 -.409781932831D-07
     .929434978195D+00  .265781250000D+03 -.197080745780D+01 -.852964100807D-08
     .162863926793D-09  .100000000000D+01  .166300000000D+04  .000000000000D+00
     .240000000000D+01  .000000000000D+00 -.167638063431D-07  .360000000000D+02
     .360060000000D+05  .400000000000D+01
23 11 11 20 12  0  0.0  .257757958025D-03 -.329691829393D-11  .000000000000D+00
     .680000000000D+02 -.453125000000D+02  .461412076808D-08  .772299551868D+00
    -.227987766266D-05  .753807392903D-02  .572390854359D-05  .515370477676D+04
     .432000000000D+05  .117346644402D-06 -.201946641868D+01  .204890966415D-06
     .962277515407D+00  .269062500000D+03 -.303201747814D+01 -.835677666472D-08
    -.325013538118D-09  .100000000000D+01  .166300000000D+04  .000000000000D+00
     .240000000000D+01  .000000000000D+00 -.204890966415D-07  .680000000000D+02
     .360060000000D+05  .400000000000D+01
25 11 11 20 12  0  0.0  .281841494143D-04  .113686837722D-11  .000000000000D+00
     .101000000000D+03  .224375000000D+02  .471698219553D-08 -.237207694559D+01
     .117532908916D-05  .993154826574D-03  .653602182865D-05  .515356088448D+04
     .432000000000D+05  .745058059692D-07  .508281655628D-01  .745058059692D-08
     .966515728060D+00  .257125000000D+03  .851701714235D+00 -.825177229087D-08
     .402516766439D-09  .100000000000D+01  .166300000000D+04  .000000000000D+00
     .240000000000D+01  .000000000000D+00  .512227416039D-08  .101000000000D+03
     .360060000000D+05  .400000000000D+01
26 11 11 20 12  0  0.0 -.232780817896D-03 -.135287336889D-10  .000000000000D+00
     .710000000000D+02 -.415937500000D+02  .415053002909D-08  .623741708706D+00
    -.221095979214D-05  .204707961529D-01  .603683292866D-05  .515365205002D+04
     .432000000000D+05 -.301748514175D-06 -.195073245181D+01 -.409781932831D-07
     .985276758583D+00  .280968750000D+03  .116526526355D+01 -.835677666472D-08
    -.424660545959D-09  .100000000000D+01  .166300000000D+04  .000000000000D+00
     .240000000000D+01  .000000000000D+00 -.605359673500D-08  .710000000000D+02
     .360060000000D+05  .400000000000D+01
